STARLINK-35142          
1 65434U 25194A   25274.12923316  .00085784  00000+0  21802-2 0  9996
2 65434  97.6020 125.9377 0002162  86.1781 273.9711 15.39299742  5561
STARLINK-34978          
1 65435U 25194B   25274.25003472 -.00237923  00000+0 -62557-2 0  9991
2 65435  97.6031 126.5851 0001876 101.5670 311.4173 15.39501942  4880
STARLINK-35043          
1 65436U 25194C   25274.25003472  .00402628  00000+0  15665-2 0  9994
2 65436  97.5890 127.5610 0001559 124.4347 340.0864 15.86116525  4943
STARLINK-35080          
1 65437U 25194D   25274.25003472 -.00173004  00000+0 -45169-2 0  9992
2 65437  97.6032 126.5660 0001587  88.8771 280.1271 15.39458026  4884
STARLINK-35068          
1 65438U 25194E   25274.25003472 -.02172313  00000+0 -49707-1 0  9998
2 65438  97.6030 126.6163 0002040  82.0962  41.4404 15.46426800  4884
STARLINK-35045          
1 65439U 25194F   25274.12675101  .00072715  00000+0  18495-2 0  9991
2 65439  97.6026 126.4178 0002237  83.4709 276.6791 15.39334089  5595
STARLINK-35050          
1 65440U 25194G   25273.32384109 -.00366240  00000+0 -83790-2 0  9990
2 65440  97.6028 125.6410 0002207  72.5971 287.5518 15.44170952  5474
STARLINK-35065          
1 65441U 25194H   25274.03251573  .00175116  00000+0  31428-2 0  9997
2 65441  97.6024 126.3912 0000517  22.4107 337.7166 15.49256353  5587
STARLINK-34679          
1 65442U 25194J   25274.25003472  .00005401  00000+0  14072-3 0  9991
2 65442  97.6030 126.5767 0001968  78.6184 312.3561 15.39315387  4943
STARLINK-34678          
1 65443U 25194K   25274.09538940  .00143638  00000+0  25914-2 0  9998
2 65443  97.6015 126.4616 0001684  81.3873 278.7568 15.49225414  5596
STARLINK-35049          
1 65444U 25194L   25274.13503575  .00118478  00000+0  29941-2 0  9998
2 65444  97.6027 126.4063 0002686  89.1766 270.9786 15.39333078  5597
STARLINK-35029          
1 65445U 25194M   25274.13070230  .00109881  00000+0  27797-2 0  9991
2 65445  97.6028 126.4124 0002905  75.8203 284.3365 15.39338171  5590
STARLINK-34991          
1 65446U 25194N   25274.12239513  .00054892  00000+0  14003-2 0  9999
2 65446  97.6026 126.4238 0002152  79.4937 280.6551 15.39325891  5594
STARLINK-34920          
1 65447U 25194P   25274.25003472  .00005866  00000+0  15245-3 0  9994
2 65447  97.6030 126.5961 0002402  94.3621 340.5795 15.39353891  4897
STARLINK-35030          
1 65448U 25194Q   25274.07399662  .00084848  00000+0  21523-2 0  9996
2 65448  97.6042 126.3375 0003302 118.7160 241.4417 15.39359938  5582
STARLINK-35009          
1 65449U 25194R   25274.25003472 -.01872514  00000+0 -50992-1 0  9997
2 65449  97.6032 126.6154 0002038  99.5214  20.6294 15.40769401  4896
STARLINK-34970          
1 65450U 25194S   25274.25003472 -.02158697  00000+0 -50022-1 0  9993
2 65450  97.6029 126.6270 0002312  91.9919  55.6051 15.46036068  4943
STARLINK-35039          
1 65451U 25194T   25274.13286411  .00070746  00000+0  18034-2 0  9999
2 65451  97.6011 126.4114 0002150  97.8945 262.2544 15.39274553  5594
STARLINK-35084          
1 65452U 25194U   25274.09297892  .00122725  00000+0  22205-2 0  9990
2 65452  97.6010 126.4664 0001983  81.3012 278.8463 15.49221395  5590
STARLINK-34988          
1 65453U 25194V   25274.25003472  .00437116  00000+0  16202-2 0  9991
2 65453  97.5828 127.6466 0001290  96.5971 209.3742 15.87039011  4944
STARLINK-35059          
1 65454U 25194W   25274.25003472  .00108724  00000+0  70240-3 0  9995
2 65454  97.5920 127.3584 0001609  83.2540 289.1759 15.75777251  5706
STARLINK-34728          
1 65455U 25194X   25274.09211354 -.00855455  00000+0 -18616-1 0  9997
2 65455  97.6030 126.4684 0003249  53.8770 306.2780 15.46963979  5595
STARLINK-35005          
1 65456U 25194Y   25274.25003472  .00013921  00000+0  35913-3 0  9999
2 65456  97.6024 126.6150 0001614  83.5992  25.3409 15.39289663  4947
STARLINK-35076          
1 65457U 25194Z   25274.09125828  .00122776  00000+0  22200-2 0  9995
2 65457  97.6008 126.4681 0001496  50.8835 309.2549 15.49240499  5594
STARLINK-34784          
1 65458U 25195A   25274.25153878  .00054765  00000+0  13693-2 0  9999
2 65458  53.1598 282.2644 0001342  61.3005 298.8135 15.39618701  5534
STARLINK-34867          
1 65459U 25195B   25274.25003472 -.01955975  00000+0 -51927-1 0  9991
2 65459  53.1598 281.9140 0001426  74.6792  96.3398 15.41210935  4907
STARLINK-34850          
1 65460U 25195C   25274.01927027  .00143784  00000+0  25432-2 0  9995
2 65460  53.1591 282.9453 0000923  99.0725 261.0389 15.49339823  5502
STARLINK-35159          
1 65461U 25195D   25274.30252445  .00078350  00000+0  19479-2 0  9993
2 65461  53.1596 281.8701 0001790 102.0709 258.0497 15.39631388  5542
STARLINK-35180          
1 65462U 25195E   25274.29322714  .00110020  00000+0  27230-2 0  9994
2 65462  53.1607 281.8119 0001653  55.6244 304.4917 15.39596747  5546
STARLINK-35111          
1 65463U 25195F   25274.27627376  .00169343  00000+0  29820-2 0  9994
2 65463  53.1585 281.7030 0001433  43.8051 316.3072 15.49359635  5542
STARLINK-35107          
1 65464U 25195G   25274.24656461  .00100245  00000+0  24827-2 0  9997
2 65464  53.1593 282.2310 0002144  76.7728 283.3516 15.39626863  5539
STARLINK-35169          
1 65465U 25195H   25274.25003472 -.00277041  00000+0 -71476-2 0  9990
2 65465  53.1594 282.0648 0001341  95.1593 359.6776 15.39716161  4968
STARLINK-35027          
1 65466U 25195J   25274.25003472  .00047847  00000+0  11986-2 0  9998
2 65466  53.1600 281.9631 0001268  88.5055  57.6219 15.39620481  4915
STARLINK-34816          
1 65467U 25195K   25274.25003472 -.01314069  00000+0 -33941-1 0  9999
2 65467  53.1592 281.8649 0001370  64.5575 130.6590 15.41782802  4912
STARLINK-35033          
1 65468U 25195L   25274.27353960  .00119900  00000+0  21403-2 0  9997
2 65468  53.1583 281.6847 0004443   8.7533 351.3553 15.49176983  5545
STARLINK-34924          
1 65469U 25195M   25274.30683415  .00087312  00000+0  21673-2 0  9993
2 65469  53.1602 281.8942 0001535  94.1353 265.9827 15.39627991  5547
STARLINK-34829          
1 65470U 25195N   25274.25003472 -.01626435  00000+0 -37760-1 0  9999
2 65470  53.1591 281.8390 0001543  80.9239 127.4911 15.45078729  4910
STARLINK-34888          
1 65471U 25195P   25274.27420873  .00070682  00000+0  12654-2 0  9990
2 65471  53.1592 281.6895 0001537 125.1122 235.0032 15.49354527  5543
STARLINK-34799          
1 65472U 25195Q   25274.30716445  .00076495  00000+0  19028-2 0  9998
2 65472  53.1607 281.8980 0001672  94.0797 266.0399 15.39626297  5523
STARLINK-34762          
1 65473U 25195R   25274.25003472 -.00226729  00000+0 -58104-2 0  9999
2 65473  53.1600 281.9576 0001516  93.4464  54.6814 15.39711915  4917
STARLINK-34998          
1 65474U 25195S   25274.25003472  .00049020  00000+0  12301-2 0  9994
2 65474  53.1598 281.9063 0001408  66.5714 107.2477 15.39557884  4793
STARLINK-34832          
1 65475U 25195T   25274.29754756  .00077749  00000+0  19327-2 0  9991
2 65475  53.1599 281.8347 0001425  76.8914 283.2250 15.39640267  5528
STARLINK-35098          
1 65476U 25195U   25274.27316909 -.00292306  00000+0 -61450-2 0  9998
2 65476  53.1587 281.6810 0003165   4.7890 355.3147 15.45839503  5521
STARLINK-35071          
1 65477U 25195V   25274.27160220 -.00778605  00000+0 -15712-1 0  9992
2 65477  53.1582 281.6694 0001443 125.9427 234.1715 15.48398191  5527
STARLINK-35093          
1 65478U 25195W   25274.27077765  .00167594  00000+0  29508-2 0  9990
2 65478  53.1579 281.6642 0001305  89.3222 270.7936 15.49370308  5522
STARLINK-35096          
1 65479U 25195X   25274.27043384  .00086291  00000+0  15400-2 0  9991
2 65479  53.1582 281.6619 0001118  91.0594 269.0543 15.49355026  5520
STARLINK-35040          
1 65480U 25195Y   25274.27973450  .00120239  00000+0  21302-2 0  9998
2 65480  53.1593 280.9942 0001342  81.9374 278.1787 15.49397497  5538
STARLINK-35042          
1 65481U 25195Z   25274.27112705  .00143681  00000+0  25395-2 0  9999
2 65481  53.1590 281.6661 0001073  66.6523 293.4599 15.49361883  5529
STARLINK-35038          
1 65482U 25195AA  25273.31174536  .00160498  00000+0  28332-2 0  9993
2 65482  53.1601 285.6220 0001280  76.7177 283.3975 15.49326635  5381
STARLINK-35037          
1 65483U 25195AB  25273.44041799  .00128833  00000+0  22836-2 0  9992
2 65483  53.1600 285.0003 0001355  98.6759 261.4404 15.49344877  5401
STARLINK-35089          
1 65484U 25195AC  25274.02031400  .00132794  00000+0  23541-2 0  9991
2 65484  53.1599 282.2199 0001109  81.8160 278.2975 15.49323825  5499
STARLINK-35143          
1 65485U 25195AD  25273.44007462  .00137860  00000+0  24399-2 0  9999
2 65485  53.1601 284.9971 0001370  90.6730 269.4436 15.49348805  5402
SHIYAN-29               
1 65486U 25196A   25274.31884758 -.00000252  00000+0  00000+0 0  9994
2 65486  28.5396  21.7935 0023727 181.8155  20.0775  1.00082617   287
CZ-3C R/B               
1 65487U 25196B   25272.55923279  .00022921  00000+0  33019-2 0  9996
2 65487  28.5096  11.0514 6968294 145.5950 290.6461  2.69742435   670
2025-197A               
1 65488U 25197A   25274.25695517  .00013814  00000+0  61355-3 0  9994
2 65488  97.4120  99.6499 0013190 188.4705 171.6310 15.21580091  3924
2025-197B               
1 65489U 25197B   25274.25492533  .00013066  00000+0  58972-3 0  9998
2 65489  97.4119  99.6521 0014210 190.2084 169.8866 15.21029111  3919
2025-197C               
1 65490U 25197C   25274.31583934  .00011453  00000+0  51322-3 0  9993
2 65490  97.4122  99.7240 0014931 194.2348 165.8469 15.21300699  3919
2025-197D               
1 65491U 25197D   25274.31437839  .00016920  00000+0  75240-3 0  9995
2 65491  97.4118  99.7250 0014590 195.3988 164.6806 15.21475153  3919
STARLINK-35226          
1 65492U 25198A   25274.25003472 -.01615766  00000+0 -25852-1 0  9990
2 65492  53.1594 300.8698 0001466  74.9782  96.1229 15.55461926  4695
